OBJECT_NAME,OBJECT_ID,EPOCH,MEAN_MOTION,ECCENTRICITY,INCLINATION,RA_OF_ASC_NODE,ARG_OF_PERICENTER,MEAN_ANOMALY,EPHEMERIS_TYPE,CLASSIFICATION_TYPE,NORAD_CAT_ID,ELEMENT_SET_NO,REV_AT_EPOCH,BSTAR,MEAN_MOTION_DOT,MEAN_MOTION_DDOT
GONETS-M 19,2020-068C,2026-07-01T13:22:38.896896,12.42892391,.00136994,82.4972,338.1263,19.8898,340.2713,0,U,46488,999,26103,-.15931247E-3,-.12E-6,0
DEKART,2020-068H,2026-07-01T14:09:36.266112,15.37672278,.00077195,97.8734,192.8941,222.8927,137.1715,0,U,46493,999,31798,.40423361E-3,.14886E-3,0
NORBI,2020-068J,2026-07-01T15:06:52.879680,15.49068077,.00067898,97.8621,199.8727,187.4500,172.6650,0,U,46494,999,31844,.49266949E-3,.26696E-3,0
SALSAT,2020-068K,2026-07-01T11:15:52.774848,15.30000103,.00079905,97.8847,186.4054,246.9386,113.1011,0,U,46495,999,31754,.29884673E-3,.8603E-4,0
ICEYE-X6,2020-068M,2026-07-01T14:57:14.958720,15.04598270,.00084176,98.0968,176.9856,51.0603,309.1371,0,U,46497,999,31540,.19641587E-3,.2691E-4,0
NETSAT-4,2020-068U,2026-06-30T23:50:08.128896,15.44320928,.00032993,97.8597,191.3470,259.8580,100.2295,0,U,46504,999,31790,.45016304E-3,.20676E-3,0
NETSAT-3,2020-068V,2026-07-01T11:07:56.142336,15.43171946,.00028947,97.8647,190.0546,286.5770,73.5158,0,U,46505,999,31788,.49071231E-3,.21692E-3,0
NETSAT-1,2020-068W,2026-07-01T11:29:24.641952,15.34966050,.00032298,97.8742,184.2317,341.4177,18.6947,0,U,46506,999,31749,.42745655E-3,.14423E-3,0
NETSAT-2,2020-068X,2026-07-01T06:32:13.595712,15.46605782,.0001498,97.8608,191.5959,318.0900,42.0233,0,U,46507,999,31791,.62895E-3,.3131E-3,0
TIANQI-6,2020-076D,2026-07-01T13:52:40.493280,15.07279517,.00110018,35.0002,320.1376,295.1863,64.7705,0,U,46810,999,31075,.26240092E-3,.4019E-4,0
KSM1-C,2020-081B,2026-07-01T14:40:56.031168,15.26978602,.00032005,36.8969,329.8758,326.6419,33.4128,0,U,46906,999,31137,.33334957E-3,.895E-4,0
KSM1-D,2020-081C,2026-07-01T15:11:09.206880,15.24928298,.00037309,36.8982,339.0358,357.9157,2.1576,0,U,46907,999,31130,.30451255E-3,.7671E-4,0
KSM1-A,2020-081H,2026-07-01T14:56:18.369312,15.26186057,.00022626,36.8979,332.3123,50.5663,309.5286,0,U,46912,999,31138,.33786445E-3,.8855E-4,0
R2,2020-081J,2026-07-01T12:25:56.524512,15.25638697,.00071678,36.8981,333.0142,38.3087,321.8171,0,U,46913,999,31417,.35612278E-3,.919E-4,0
KSM1-B,2020-081K,2026-07-01T15:19:02.512128,15.24716902,.00048724,36.9038,339.6414,28.3013,331.8000,0,U,46914,999,31439,.33904893E-3,.85E-4,0
GONETS-M 20,2020-091A,2026-07-01T13:49:22.857600,12.42893622,.00217848,82.5060,293.4913,147.2254,213.0183,0,U,47227,999,25286,-.51154261E-3,-.61E-6,0
GONETS-M 21,2020-091B,2026-07-01T15:07:45.551712,12.42886871,.00154038,82.4984,292.1557,159.8935,200.2755,0,U,47228,999,25286,-.24658869E-3,-.24E-6,0
GONETS-M 22,2020-091C,2026-07-01T14:28:56.010720,12.42892799,.00227351,82.5041,293.0778,142.7821,217.4840,0,U,47229,999,25281,-.60543893E-3,-.74E-6,0
CUBEL,2021-006AM,2026-07-01T10:38:27.886848,15.41727774,.0007982,97.2320,232.8958,120.9127,239.2906,0,U,47448,999,30195,.63597563E-3,.26867E-3,0
ARKTIKA-M 1,2021-016A,2026-06-29T22:50:46.732128,2.00617895,.72928178,63.2520,55.7907,269.9910,14.5481,0,U,47719,999,3904,0,-.281E-5,0
STARLINK-2342,2021-021Z,2026-07-01T16:00:01.999584,15.86350383,.00045407,53.1535,75.2236,224.3500,349.3525,0,U,47883,999,598,.11361805E-2,.300246E-2,0
GRUS-1B,2021-022C,2026-07-01T14:20:23.640576,14.98745165,.00147616,97.5359,65.3189,270.9147,89.0385,0,U,47934,999,28805,.53970653E-4,.593E-5,0
UNISAT-7,2021-022P,2026-07-01T06:05:11.685408,15.40850761,.00098094,97.3881,87.3271,36.3988,323.7923,0,U,47945,999,29202,.45771795E-3,.18748E-3,0
GLOBAL-9,2021-023G,2026-07-01T11:03:22.419360,15.47103848,.00029577,44.9790,170.2687,48.4871,311.6273,0,U,47971,999,29715,.41695803E-3,.21304E-3,0
AII-BRAVO,2021-034C,2026-07-01T14:18:30.421152,15.03583228,.00050837,97.5608,237.1801,197.4087,162.6965,0,U,48270,999,28178,.29493877E-3,.3971E-4,0
TYVAK-182A,2021-034D,2026-07-01T14:43:08.529024,15.06298041,.00040255,97.5716,241.2807,282.5980,77.4797,0,U,48271,999,28200,.35772769E-3,.5196E-4,0
CSS (TIANHE),2021-035A,2026-07-01T13:30:43.460064,15.61414266,.00088153,41.4674,234.4763,193.7745,166.2854,0,U,48274,999,29541,.23512607E-3,.20395E-3,0
TYVAK-0130,2021-041BF,2026-07-01T02:40:04.774368,15.27768223,.00090824,52.9980,321.4129,208.3470,151.7034,0,U,48606,999,28251,.32797248E-3,.8682E-4,0
