GONETS-M 19             
1 46488U 20068C   26182.55739464 -.00000012  00000+0 -15931-3 0  9994
2 46488  82.4972 338.1263 0013699  19.8898 340.2713 12.42892391261034
DEKART                  
1 46493U 20068H   26182.59000308  .00014886  00000+0  40423-3 0  9998
2 46493  97.8734 192.8941 0007719 222.8927 137.1715 15.37672278317987
NORBI                   
1 46494U 20068J   26182.62977870  .00026696  00000+0  49267-3 0  9997
2 46494  97.8621 199.8727 0006789 187.4500 172.6650 15.49068077318444
SALSAT                  
1 46495U 20068K   26182.46936082  .00008603  00000+0  29885-3 0  9992
2 46495  97.8847 186.4054 0007990 246.9386 113.1011 15.30000103317545
ICEYE-X6                
1 46497U 20068M   26182.62308980  .00002691  00000+0  19642-3 0  9993
2 46497  98.0968 176.9856 0008417  51.0603 309.1371 15.04598270315407
NETSAT-4                
1 46504U 20068U   26181.99314964  .00020676  00000+0  45016-3 0  9997
2 46504  97.8597 191.3470 0003299 259.8580 100.2295 15.44320928317908
NETSAT-3                
1 46505U 20068V   26182.46384424  .00021692  00000+0  49071-3 0  9993
2 46505  97.8647 190.0546 0002894 286.5770  73.5158 15.43171946317883
NETSAT-1                
1 46506U 20068W   26182.47875743  .00014423  00000+0  42746-3 0  9990
2 46506  97.8742 184.2317 0003229 341.4177  18.6947 15.34966050317497
NETSAT-2                
1 46507U 20068X   26182.27237958  .00031310  00000+0  62895-3 0  9990
2 46507  97.8608 191.5959 0001498 318.0900  42.0233 15.46605782317913
TIANQI-6                
1 46810U 20076D   26182.57824645  .00004019  00000+0  26240-3 0  9994
2 46810  35.0002 320.1376 0011001 295.1863  64.7705 15.07279517310759
KSM1-C                  
1 46906U 20081B   26182.61175962  .00008950  00000+0  33335-3 0  9993
2 46906  36.8969 329.8758 0003200 326.6419  33.4128 15.26978602311378
KSM1-D                  
1 46907U 20081C   26182.63274545  .00007671  00000+0  30451-3 0  9998
2 46907  36.8982 339.0358 0003730 357.9157   2.1576 15.24928298311304
KSM1-A                  
1 46912U 20081H   26182.62243483  .00008855  00000+0  33786-3 0  9999
2 46912  36.8979 332.3123 0002262  50.5663 309.5286 15.26186057311380
R2                      
1 46913U 20081J   26182.51801533  .00009190  00000+0  35612-3 0  9997
2 46913  36.8981 333.0142 0007167  38.3087 321.8171 15.25638697314177
KSM1-B                  
1 46914U 20081K   26182.63822352  .00008500  00000+0  33905-3 0  9990
2 46914  36.9038 339.6414 0004872  28.3013 331.8000 15.24716902314395
GONETS-M 20             
1 47227U 20091A   26182.57595900 -.00000061  00000+0 -51154-3 0  9990
2 47227  82.5060 293.4913 0021784 147.2254 213.0183 12.42893622252863
GONETS-M 21             
1 47228U 20091B   26182.63038833 -.00000024  00000+0 -24659-3 0  9994
2 47228  82.4984 292.1557 0015403 159.8935 200.2755 12.42886871252865
GONETS-M 22             
1 47229U 20091C   26182.60342605 -.00000074  00000+0 -60544-3 0  9995
2 47229  82.5041 293.0778 0022735 142.7821 217.4840 12.42892799252813
CUBEL                   
1 47448U 21006AM  26182.44337832  .00026867  00000+0  63598-3 0  9991
2 47448  97.2320 232.8958 0007982 120.9127 239.2906 15.41727774301951
ARKTIKA-M 1             
1 47719U 21016A   26180.95192977 -.00000281  00000+0  00000+0 0  9994
2 47719  63.2520  55.7907 7292817 269.9910  14.5481  2.00617895 39040
STARLINK-2342           
1 47883U 21021Z   26182.66668981  .00300246  00000+0  11362-2 0  9994
2 47883  53.1535  75.2236 0004540 224.3500 349.3525 15.86350383  5983
GRUS-1B                 
1 47934U 21022C   26182.59749584  .00000593  00000+0  53971-4 0  9999
2 47934  97.5359  65.3189 0014761 270.9147  89.0385 14.98745165288054
UNISAT-7                
1 47945U 21022P   26182.25360747  .00018748  00000+0  45772-3 0  9994
2 47945  97.3881  87.3271 0009809  36.3988 323.7923 15.40850761292029
GLOBAL-9                
1 47971U 21023G   26182.46067615  .00021304  00000+0  41696-3 0  9998
2 47971  44.9790 170.2687 0002957  48.4871 311.6273 15.47103848297157
AII-BRAVO               
1 48270U 21034C   26182.59618543  .00003971  00000+0  29494-3 0  9991
2 48270  97.5608 237.1801 0005083 197.4087 162.6965 15.03583228281780
TYVAK-182A              
1 48271U 21034D   26182.61329316  .00005196  00000+0  35773-3 0  9990
2 48271  97.5716 241.2807 0004025 282.5980  77.4797 15.06298041282007
CSS (TIANHE)            
1 48274U 21035A   26182.56300301  .00020395  00000+0  23513-3 0  9998
2 48274  41.4674 234.4763 0008815 193.7745 166.2854 15.61414266295419
TYVAK-0130              
1 48606U 21041BF  26182.11116637  .00008682  00000+0  32797-3 0  9991
2 48606  52.9980 321.4129 0009082 208.3470 151.7034 15.27768223282516
